{"fetched_at":"2026-07-12T17:32:24.168Z","source":"https://celestrak.org/NORAD/elements/gp.php?GROUP=oneweb&FORMAT=JSON","constellation":"oneweb","records":[{"OBJECT_NAME":"ONEWEB-0159","OBJECT_ID":"2021-025W","EPOCH":"2026-07-12T07:54:33.875136","CLASSIFICATION_TYPE":"U","MEAN_MOTION":13.13470046,"ECCENTRICITY":0.0002222,"INCLINATION":87.8987,"RA_OF_ASC_NODE":315.2125,"ARG_OF_PERICENTER":100.3453,"MEAN_ANOMALY":259.7927,"EPHEMERIS_TYPE":0,"NORAD_CAT_ID":48062,"ELEMENT_SET_NO":999,"REV_AT_EPOCH":25690,"BSTAR":0.0010117,"MEAN_MOTION_DOT":0.00000382,"MEAN_MOTION_DDOT":0},{"OBJECT_NAME":"ONEWEB-0164","OBJECT_ID":"2021-025X","EPOCH":"2026-07-11T18:39:52.471296","CLASSIFICATION_TYPE":"U","MEAN_MOTION":13.13469808,"ECCENTRICITY":0.00019135,"INCLINATION":87.8992,"RA_OF_ASC_NODE":315.3295,"ARG_OF_PERICENTER":103.4056,"MEAN_ANOMALY":256.7286,"EPHEMERIS_TYPE":0,"NORAD_CAT_ID":48063,"ELEMENT_SET_NO":999,"REV_AT_EPOCH":25681,"BSTAR":0.00028657992,"MEAN_MOTION_DOT":0.00000117,"MEAN_MOTION_DDOT":0},{"OBJECT_NAME":"ONEWEB-0167","OBJECT_ID":"2021-025Y","EPOCH":"2026-07-11T19:20:06.501120","CLASSIFICATION_TYPE":"U","MEAN_MOTION":13.13469938,"ECCENTRICITY":0.00023005,"INCLINATION":87.8987,"RA_OF_ASC_NODE":315.3283,"ARG_OF_PERICENTER":115.2514,"MEAN_ANOMALY":244.8854,"EPHEMERIS_TYPE":0,"NORAD_CAT_ID":48064,"ELEMENT_SET_NO":999,"REV_AT_EPOCH":25680,"BSTAR":0.00087786867,"MEAN_MOTION_DOT":0.00000333,"MEAN_MOTION_DDOT":0},{"OBJECT_NAME":"ONEWEB-0166","OBJECT_ID":"2021-025Z","EPOCH":"2026-07-11T19:53:00.392928","CLASSIFICATION_TYPE":"U","MEAN_MOTION":13.13469306,"ECCENTRICITY":0.00019935,"INCLINATION":87.8988,"RA_OF_ASC_NODE":315.3004,"ARG_OF_PERICENTER":97.4602,"MEAN_ANOMALY":262.6754,"EPHEMERIS_TYPE":0,"NORAD_CAT_ID":48065,"ELEMENT_SET_NO":999,"REV_AT_EPOCH":25688,"BSTAR":-0.0010134935,"MEAN_MOTION_DOT":-0.00000357,"MEAN_MOTION_DDOT":0},{"OBJECT_NAME":"ONEWEB-0151","OBJECT_ID":"2021-025AA","EPOCH":"2026-07-11T19:55:25.844736","CLASSIFICATION_TYPE":"U","MEAN_MOTION":13.13470002,"ECCENTRICITY":0.00019348,"INCLINATION":87.8985,"RA_OF_ASC_NODE":315.315,"ARG_OF_PERICENTER":103.5657,"MEAN_ANOMALY":256.5687,"EPHEMERIS_TYPE":0,"NORAD_CAT_ID":48066,"ELEMENT_SET_NO":999,"REV_AT_EPOCH":25682,"BSTAR":-0.00084429275,"MEAN_MOTION_DOT":-0.00000296,"MEAN_MOTION_DDOT":0},{"OBJECT_NAME":"ONEWEB-0170","OBJECT_ID":"2021-025AB","EPOCH":"2026-07-11T20:07:37.047936","CLASSIFICATION_TYPE":"U","MEAN_MOTION":13.13469587,"ECCENTRICITY":0.00017565,"INCLINATION":87.898,"RA_OF_ASC_NODE":315.3152,"ARG_OF_PERICENTER":115.3362,"MEAN_ANOMALY":244.7949,"EPHEMERIS_TYPE":0,"NORAD_CAT_ID":48067,"ELEMENT_SET_NO":999,"REV_AT_EPOCH":25678,"BSTAR":-0.00068958577,"MEAN_MOTION_DOT":-0.00000239,"MEAN_MOTION_DDOT":0},{"OBJECT_NAME":"ONEWEB-0168","OBJECT_ID":"2021-025AC","EPOCH":"2026-07-12T06:43:51.559104","CLASSIFICATION_TYPE":"U","MEAN_MOTION":13.13468994,"ECCENTRICITY":0.0001995,"INCLINATION":87.8984,"RA_OF_ASC_NODE":315.2281,"ARG_OF_PERICENTER":101.6979,"MEAN_ANOMALY":258.4374,"EPHEMERIS_TYPE":0,"NORAD_CAT_ID":48068,"ELEMENT_SET_NO":999,"REV_AT_EPOCH":25685,"BSTAR":-0.00048773,"MEAN_MOTION_DOT":-0.00000165,"MEAN_MOTION_DDOT":0},{"OBJECT_NAME":"ONEWEB-0173","OBJECT_ID":"2021-025AD","EPOCH":"2026-07-12T06:31:40.635840","CLASSIFICATION_TYPE":"U","MEAN_MOTION":13.1346901,"ECCENTRICITY":0.0002397,"INCLINATION":87.8988,"RA_OF_ASC_NODE":315.2298,"ARG_OF_PERICENTER":110.0952,"MEAN_ANOMALY":250.0435,"EPHEMERIS_TYPE":0,"NORAD_CAT_ID":48069,"ELEMENT_SET_NO":999,"REV_AT_EPOCH":25709,"BSTAR":-0.0001129,"MEAN_MOTION_DOT":-2.8e-7,"MEAN_MOTION_DDOT":0},{"OBJECT_NAME":"ONEWEB-0171","OBJECT_ID":"2021-025AE","EPOCH":"2026-07-11T20:27:07.780896","CLASSIFICATION_TYPE":"U","MEAN_MOTION":13.13470254,"ECCENTRICITY":0.00019645,"INCLINATION":87.8975,"RA_OF_ASC_NODE":315.321,"ARG_OF_PERICENTER":101.2288,"MEAN_ANOMALY":258.9062,"EPHEMERIS_TYPE":0,"NORAD_CAT_ID":48070,"ELEMENT_SET_NO":999,"REV_AT_EPOCH":25685,"BSTAR":0.00030453296,"MEAN_MOTION_DOT":0.00000124,"MEAN_MOTION_DDOT":0},{"OBJECT_NAME":"ONEWEB-0172","OBJECT_ID":"2021-025AF","EPOCH":"2026-07-11T19:57:52.304832","CLASSIFICATION_TYPE":"U","MEAN_MOTION":13.13470486,"ECCENTRICITY":0.00020618,"INCLINATION":87.8987,"RA_OF_ASC_NODE":315.3169,"ARG_OF_PERICENTER":102.7342,"MEAN_ANOMALY":257.4018,"EPHEMERIS_TYPE":0,"NORAD_CAT_ID":48071,"ELEMENT_SET_NO":999,"REV_AT_EPOCH":25774,"BSTAR":-0.00091825023,"MEAN_MOTION_DOT":-0.00000323,"MEAN_MOTION_DDOT":0},{"OBJECT_NAME":"ONEWEB-0174","OBJECT_ID":"2021-025AG","EPOCH":"2026-07-12T06:29:14.678592","CLASSIFICATION_TYPE":"U","MEAN_MOTION":13.13469105,"ECCENTRICITY":0.0001995,"INCLINATION":87.8986,"RA_OF_ASC_NODE":315.2285,"ARG_OF_PERICENTER":94.9967,"MEAN_ANOMALY":265.139,"EPHEMERIS_TYPE":0,"NORAD_CAT_ID":48072,"ELEMENT_SET_NO":999,"REV_AT_EPOCH":25712,"BSTAR":0.00017566,"MEAN_MOTION_DOT":7.7e-7,"MEAN_MOTION_DDOT":0},{"OBJECT_NAME":"ONEWEB-0175","OBJECT_ID":"2021-025AH","EPOCH":"2026-07-11T20:14:56.426496","CLASSIFICATION_TYPE":"U","MEAN_MOTION":13.13469977,"ECCENTRICITY":0.00020447,"INCLINATION":87.8983,"RA_OF_ASC_NODE":315.2986,"ARG_OF_PERICENTER":108.7473,"MEAN_ANOMALY":251.3878,"EPHEMERIS_TYPE":0,"NORAD_CAT_ID":48073,"ELEMENT_SET_NO":999,"REV_AT_EPOCH":25672,"BSTAR":-0.00043490806,"MEAN_MOTION_DOT":-0.00000146,"MEAN_MOTION_DDOT":0},{"OBJECT_NAME":"ONEWEB-0177","OBJECT_ID":"2021-025AJ","EPOCH":"2026-07-12T07:30:11.042784","CLASSIFICATION_TYPE":"U","MEAN_MOTION":13.13470462,"ECCENTRICITY":0.0002082,"INCLINATION":87.8975,"RA_OF_ASC_NODE":315.2245,"ARG_OF_PERICENTER":97.9557,"MEAN_ANOMALY":262.1808,"EPHEMERIS_TYPE":0,"NORAD_CAT_ID":48074,"ELEMENT_SET_NO":999,"REV_AT_EPOCH":25697,"BSTAR":0.00015262,"MEAN_MOTION_DOT":6.8e-7,"MEAN_MOTION_DDOT":0},{"OBJECT_NAME":"ONEWEB-0178","OBJECT_ID":"2021-025AK","EPOCH":"2026-07-11T19:09:20.100384","CLASSIFICATION_TYPE":"U","MEAN_MOTION":13.13470044,"ECCENTRICITY":0.00021597,"INCLINATION":87.8973,"RA_OF_ASC_NODE":315.3354,"ARG_OF_PERICENTER":103.7249,"MEAN_ANOMALY":256.4121,"EPHEMERIS_TYPE":0,"NORAD_CAT_ID":48075,"ELEMENT_SET_NO":999,"REV_AT_EPOCH":25695,"BSTAR":0.0007118366,"MEAN_MOTION_DOT":0.00000273,"MEAN_MOTION_DDOT":0},{"OBJECT_NAME":"ONEWEB-0108","OBJECT_ID":"2021-025AL","EPOCH":"2026-07-12T06:58:29.245728","CLASSIFICATION_TYPE":"U","MEAN_MOTION":13.13469557,"ECCENTRICITY":0.0001743,"INCLINATION":87.8994,"RA_OF_ASC_NODE":315.2189,"ARG_OF_PERICENTER":96.5698,"MEAN_ANOMALY":263.5629,"EPHEMERIS_TYPE":0,"NORAD_CAT_ID":48076,"ELEMENT_SET_NO":999,"REV_AT_EPOCH":25694,"BSTAR":-0.00086168,"MEAN_MOTION_DOT":-0.00000302,"MEAN_MOTION_DDOT":0},{"OBJECT_NAME":"ONEWEB-0169","OBJECT_ID":"2021-025AM","EPOCH":"2026-07-11T20:46:38.382528","CLASSIFICATION_TYPE":"U","MEAN_MOTION":13.13469321,"ECCENTRICITY":0.00019941,"INCLINATION":87.8979,"RA_OF_ASC_NODE":315.3104,"ARG_OF_PERICENTER":94.2011,"MEAN_ANOMALY":265.9346,"EPHEMERIS_TYPE":0,"NORAD_CAT_ID":48077,"ELEMENT_SET_NO":999,"REV_AT_EPOCH":25554,"BSTAR":0.00079934256,"MEAN_MOTION_DOT":0.00000305,"MEAN_MOTION_DDOT":0}]}
